CZ-2D R/B               
1 28738U 05024B   26170.57807125  .00048463  00000+0  40689-3 0  9994
2 28738  97.3481 190.1257 0002967  49.2579 310.8941 15.69779759155717
ALOS (DAICHI)           
1 28931U 06002A   26170.81314494  .00000757  00000+0  13441-3 0  9995
2 28931  98.1324 126.3723 0001351  56.4498 303.6837 14.70054658 88480
H-2A R/B                
1 28932U 06002B   26170.49336598  .00005418  00000+0  26150-3 0  9999
2 28932  98.2571 326.5305 0049604 254.2243 105.3515 15.18084943109875
RESURS-DK 1             
1 29228U 06021A   26170.48117437  .00001551  00000+0  93164-4 0  9991
2 29228  69.9330 333.6151 0006880 290.7888  69.2541 15.13225616102924
CZ-4B R/B               
1 29507U 06046C   26170.69215661  .00002965  00000+0  14840-3 0  9992
2 29507  97.5448 215.2916 0030946 273.5810  86.1885 15.17798466 75514
CZ-2C R/B               
1 31114U 07010B   26170.52562050  .00000052  00000+0  42794-4 0  9995
2 31114  98.4102 278.7621 0058872 359.3184   0.7904 14.20276541994174
COSMO-SKYMED 1          
1 31598U 07023A   26170.80848988  .00002255  00000+0  20060-3 0  9991
2 31598  97.8850   2.6860 0001499  98.2997 261.8394 14.97110711 30181
COSMOS 2428             
1 31792U 07029A   26170.69234284 -.00000096  00000+0 -25886-4 0  9993
2 31792  70.9350 349.2175 0007129 130.2415 229.9330 14.12927893978507
SL-16 R/B               
1 31793U 07029B   26170.73204376  .00000008  00000+0  28986-4 0  9993
2 31793  70.9771 317.8782 0002378 262.8180 192.4229 14.14855646979805
KORONAS-FOTON           
1 33504U 09003A   26170.47373058  .00009943  00000+0  20420-3 0  9995
2 33504  82.4289 169.8742 0011897 140.0965 220.1160 15.45761286961450
CZ-2C R/B               
1 37731U 11030B   26170.35453662  .00001009  00000+0  13261-3 0  9991
2 37731  97.8655 125.7015 0052886  21.0278 131.5769 14.81476109805144
H-2A R/B                
1 38341U 12025E   26170.49833477  .00001712  00000+0  15715-3 0  9992
2 38341  98.4833 145.8345 0043496 341.6252  18.3393 14.95730025763431
SHIJIAN-16 (SJ-16)      
1 39358U 13057A   26170.85346103  .00000342  00000+0  36019-4 0  9991
2 39358  74.9728 351.6328 0016728 224.5649 135.4195 14.92607008686747
SL-4 R/B                
1 39679U 14021B   26170.33216816  .00007880  00000+0  16588-3 0  9991
2 39679  51.6042 200.2620 0091147 113.7762 247.2814 15.41991615671942
ALOS-2                  
1 39766U 14029A   26170.84448184  .00001311  00000+0  18236-3 0  9992
2 39766  97.9222 267.9701 0001677  90.9592 269.1812 14.79476609651971
YAOGAN-29               
1 41038U 15069A   26170.87653383 -.00000376  00000+0 -39493-4 0  9995
2 41038  98.0022 199.5139 0002495  49.7958 310.3473 14.83084768571023
ASTRO-H (HITOMI)        
1 41337U 16012A   26170.14882152  .00001996  00000+0  11244-3 0  9994
2 41337  30.9995  61.5179 0009774 273.2762  86.6758 15.10517915567586
HXMT (HUIYAN)           
1 42758U 17034A   26170.83125595  .00002249  00000+0  11746-3 0  9993
2 42758  43.0125 168.3175 0030937 164.2204 195.9615 15.18489449498061
SAOCOM 1A               
1 43641U 18076A   26170.83646687  .00000437  00000+0  61425-4 0  9999
2 43641  97.8883 357.5462 0001601  79.9673 280.1720 14.82151219416492
H-2A R/B                
1 43682U 18084L   26170.84804891  .00017306  00000+0  36254-3 0  9991
2 43682  98.8568  50.3189 0023225  31.5393 328.7238 15.45240334421532
SAOCOM 1B               
1 46265U 20059A   26170.80011411  .00000245  00000+0  37404-4 0  9993
2 46265  97.8885 356.6051 0001592  84.2627 275.8767 14.82147160313870
CSS (TIANHE)            
1 48274U 21035A   26170.72834612  .00019835  00000+0  23343-3 0  9998
2 48274  41.4696 306.5363 0007350  99.2772 260.8898 15.60907257293562
COSMOS 2550             
1 48865U 21056A   26170.82800867  .00005106  00000+0  16089-3 0  9998
2 48865  67.1431  91.9178 0008418 268.7309  91.2881 15.33836534279127
CZ-2C R/B               
1 52794U 22058K   26170.41728611  .00035796  00000+0  39544-3 0  9997
2 52794  50.1848 151.9127 0032468 277.2329  82.4954 15.61996467225999
CZ-2C R/B               
1 54039U 22132E   26170.57196850  .00056019  00000+0  43005-3 0  9993
2 54039  97.2905 177.7027 0015710  76.9211 283.3805 15.71740322206320
GSLV R/B                
1 54149U 22138AN  26170.85795861  .00001923  00000+0  16264-3 0  9990
2 54149  87.3805 132.0874 0023184 134.6590 225.6537 14.97267052199212
XRISM                   
1 57800U 23137A   26170.83043650  .00004128  00000+0  22580-3 0  9995
2 57800  31.0032 342.4799 0007927 350.1352   9.9130 15.12486514153269
ACS3                    
1 59588U 24077B   26170.50222232  .00039988  00000+0  29198-1 0  9995
2 59588  97.1690  88.7765 0080296  62.1682 298.7592 13.94234122108361
CZ-8A R/B               
1 66004U 25231K   26170.28800177 -.00000018  00000+0  51915-4 0  9992
2 66004  50.0053  30.3782 0116483 231.4081 127.6356 14.30155399 35240
SZ-21 MODULE            
1 66515U 25246C   26170.62304187  .00039794  00000+0  24286-3 0  9995
2 66515  41.4730 292.1532 0005926   7.7871 352.3065 15.76588492 34129

ISS (ZARYA)             
1 25544U 98067A   26170.83410214  .00008787  00000+0  16559-3 0  9997
2 25544  51.6327 286.9925 0004571 206.3214 153.7542 15.49322400572160
POISK                   
1 36086U 09060A   26170.83410214  .00008787  00000+0  16559-3 0  9995
2 36086  51.6327 286.9925 0004571 206.3214 153.7542 15.49322400571847
CSS (TIANHE)            
1 48274U 21035A   26170.72834612  .00019835  00000+0  23343-3 0  9998
2 48274  41.4696 306.5363 0007350  99.2772 260.8898 15.60907257293562
ISS (NAUKA)             
1 49044U 21066A   26170.83410214  .00008787  00000+0  16559-3 0  9993
2 49044  51.6327 286.9925 0004571 206.3214 153.7542 15.49322400571890
FREGAT DEB              
1 49271U 11037PF  26169.81914094  .00008272  00000+0  14121-1 0  9993
2 49271  51.6464 357.0101 0902414 285.8164  64.5091 12.42157697225257
CSS (WENTIAN)           
1 53239U 22085A   26170.53640025  .00019225  00000+0  22646-3 0  9991
2 53239  41.4696 307.7047 0007363  97.4720 262.6956 15.60899851288231
CSS (MENGTIAN)          
1 54216U 22143A   26170.72834612  .00019835  00000+0  23343-3 0  9992
2 54216  41.4696 306.5363 0007350  99.2772 260.8898 15.60907257294241
HRC MONOBLOCK CAMERA    
1 66052U 98067XR  26170.55036048  .00068429  00000+0  46435-3 0  9999
2 66052  51.6235 267.0322 0001896 312.4740  47.6099 15.74317900 38373
SZ-21 MODULE            
1 66515U 25246C   26170.62304187  .00039794  00000+0  24286-3 0  9995
2 66515  41.4730 292.1532 0005926   7.7871 352.3065 15.76588492 34129
SOYUZ-MS 28             
1 66664U 25275A   26170.83410214  .00008787  00000+0  16559-3 0  9996
2 66664  51.6327 286.9925 0004571 206.3214 153.7542 15.49322400571998
DUPLEX                  
1 66906U 98067XS  26170.48245936  .00033583  00000+0  37076-3 0  9991
2 66906  51.6282 277.8816 0003092 219.1818 140.8953 15.62737928 31011
ISS OBJECT XY           
1 66912U 98067XY  26170.47454933  .00593208  16926-3  10598-2 0  9998
2 66912  51.6155 261.8803 0011758 333.2317  26.8085 16.01029285 31211
KNACKSAT-2              
1 67683U 98067XZ  26170.59247606  .00040473  00000+0  49084-3 0  9990
2 67683  51.6307 282.3774 0008934 225.7617 134.2643 15.60167582 20658
CORAL                   
1 67684U 98067YA  26170.47807494  .00195376  00000+0  11309-2 0  9996
2 67684  51.6220 276.3117 0008771 271.8433  88.1562 15.77420141 20720
GXIBA-1                 
1 67685U 98067YB  26170.59224365  .00049351  00000+0  55977-3 0  9991
2 67685  51.6278 281.6206 0010015 224.2331 135.7863 15.61809367 20665
UITMSAT-2               
1 67686U 98067YC  26170.34352841  .00074622  00000+0  73913-3 0  9995
2 67686  51.6271 281.4583 0005344 219.5167 140.5439 15.65134468 20646
LEOPARD                 
1 67687U 98067YD  26170.55506251  .00045233  00000+0  52702-3 0  9994
2 67687  51.6304 282.1385 0005800 207.3704 152.6985 15.61190573 20578
HMU-SAT2                
1 67688U 98067YE  26170.59093790  .00058834  00000+0  62221-3 0  9996
2 67688  51.6279 280.8696 0005587 215.3981 144.6643 15.63572784 20592
CREW DRAGON 12          
1 67796U 26031A   26170.83410214  .00008787  00000+0  16559-3 0  9994
2 67796  51.6327 286.9925 0004571 206.3214 153.7542 15.49322400571940
PROGRESS-MS 33          
1 68319U 26058A   26170.83410214  .00008787  00000+0  16559-3 0  9995
2 68319  51.6327 286.9925 0004571 206.3214 153.7542 15.49322400572044
CYGNUS NG-24            
1 68689U 26079A   26170.51159304  .00008252  00000+0  15605-3 0  9991
2 68689  51.6332 288.5889 0004596 205.0015 155.0751 15.49315858572045
PROGRESS-MS 34          
1 68837U 26093A   26170.51159304  .00008252  00000+0  15605-3 0  9992
2 68837  51.6332 288.5889 0004596 205.0015 155.0751 15.49315858572095
TIANZHOU-10             
1 69049U 26102A   26170.53640025  .00019225  00000+0  22646-3 0  9991
2 69049  41.4696 307.7047 0007363  97.4720 262.6956 15.60899851  6213
SHENZHOU-23 (SZ-23)     
1 69180U 26113A   26170.53640025  .00019225  00000+0  22646-3 0  9999
2 69180  41.4696 307.7047 0007363  97.4720 262.6956 15.60899851293644
